GHGSAT-C1               
1 46278U 20061G   26200.23414978  .00026017  00000+0  18655-3 0  9997
2 46278  97.2086 286.4655 0001352 173.1708 186.9576 15.73667685328510
GHGSAT-C2               
1 47509U 21006DA  26200.09537358  .00003405  00000+0  92797-4 0  9993
2 47509  97.2125 246.8170 0006520  65.2376 294.9548 15.38135218304750
GHGSAT-C3               
1 52737U 22057F   26200.25616052  .00003478  00000+0  10592-3 0  9998
2 52737  97.6641 347.1297 0005960  22.0022 338.1475 15.34708160230450
GHGSAT-C5               
1 52744U 22057N   26200.29556622  .00003466  00000+0  10561-3 0  9999
2 52744  97.6727 348.7814 0006653  18.7993 341.3493 15.34684776230467
GHGSAT-C4               
1 52746U 22057Q   26200.34212100  .00003602  00000+0  10963-3 0  9995
2 52746  97.6567 346.0176 0005746   4.7496 355.3800 15.34695859230470
GHGSAT-C8               
1 56186U 23054J   26200.23995221  .00008525  00000+0  13417-3 0  9991
2 56186  97.2949 110.0256 0002343 345.3904  14.7282 15.53847215183415
GHGSAT-C6               
1 56204U 23054AC  26200.20623471  .00008698  00000+0  13697-3 0  9995
2 56204  97.3010 110.6979 0003179 282.8360  77.2539 15.53821402183423
GHGSAT-C7               
1 56209U 23054AH  26200.21344068  .00005961  00000+0  10619-3 0  9994
2 56209  97.2960 108.9998 0004804 283.6595  76.4122 15.50496059183351
GHGSAT-C12              
1 64529U 25135B   26200.30010337  .00001725  00000+0  82171-4 0  9996
2 64529  97.4773 314.8304 0006280  70.1850 290.0061 15.20459931 59703
GHGSAT-C13              
1 64548U 25135W   26200.28524093  .00002905  00000+0  13253-3 0  9998
2 64548  97.4804 315.4386 0001696  64.7225 295.4186 15.21427752 59734
