{"fetched_at":"2026-07-19T17:31:31.327Z","source":"https://celestrak.org/NORAD/elements/gp.php?NAME=GHGSAT&FORMAT=JSON","constellation":"ghgsat","records":[{"OBJECT_NAME":"GHGSAT-C1","OBJECT_ID":"2020-061G","EPOCH":"2026-07-19T05:37:10.540992","CLASSIFICATION_TYPE":"U","MEAN_MOTION":15.73667685,"ECCENTRICITY":0.00013524,"INCLINATION":97.2086,"RA_OF_ASC_NODE":286.4655,"ARG_OF_PERICENTER":173.1708,"MEAN_ANOMALY":186.9576,"EPHEMERIS_TYPE":0,"NORAD_CAT_ID":46278,"ELEMENT_SET_NO":999,"REV_AT_EPOCH":32851,"BSTAR":0.00018654593,"MEAN_MOTION_DOT":0.00026017,"MEAN_MOTION_DDOT":0},{"OBJECT_NAME":"GHGSAT-C2","OBJECT_ID":"2021-006DA","EPOCH":"2026-07-19T02:17:20.277312","CLASSIFICATION_TYPE":"U","MEAN_MOTION":15.38135218,"ECCENTRICITY":0.00065207,"INCLINATION":97.2125,"RA_OF_ASC_NODE":246.817,"ARG_OF_PERICENTER":65.2376,"MEAN_ANOMALY":294.9548,"EPHEMERIS_TYPE":0,"NORAD_CAT_ID":47509,"ELEMENT_SET_NO":999,"REV_AT_EPOCH":30475,"BSTAR":0.000092797176,"MEAN_MOTION_DOT":0.00003405,"MEAN_MOTION_DDOT":0},{"OBJECT_NAME":"GHGSAT-C3","OBJECT_ID":"2022-057F","EPOCH":"2026-07-19T06:08:52.268928","CLASSIFICATION_TYPE":"U","MEAN_MOTION":15.3470816,"ECCENTRICITY":0.00059604,"INCLINATION":97.6641,"RA_OF_ASC_NODE":347.1297,"ARG_OF_PERICENTER":22.0022,"MEAN_ANOMALY":338.1475,"EPHEMERIS_TYPE":0,"NORAD_CAT_ID":52737,"ELEMENT_SET_NO":999,"REV_AT_EPOCH":23045,"BSTAR":0.00010591773,"MEAN_MOTION_DOT":0.00003478,"MEAN_MOTION_DDOT":0},{"OBJECT_NAME":"GHGSAT-C5","OBJECT_ID":"2022-057N","EPOCH":"2026-07-19T07:05:36.921408","CLASSIFICATION_TYPE":"U","MEAN_MOTION":15.34684776,"ECCENTRICITY":0.00066532,"INCLINATION":97.6727,"RA_OF_ASC_NODE":348.7814,"ARG_OF_PERICENTER":18.7993,"MEAN_ANOMALY":341.3493,"EPHEMERIS_TYPE":0,"NORAD_CAT_ID":52744,"ELEMENT_SET_NO":999,"REV_AT_EPOCH":23046,"BSTAR":0.00010561047,"MEAN_MOTION_DOT":0.00003466,"MEAN_MOTION_DDOT":0},{"OBJECT_NAME":"GHGSAT-C4","OBJECT_ID":"2022-057Q","EPOCH":"2026-07-19T08:12:39.254400","CLASSIFICATION_TYPE":"U","MEAN_MOTION":15.34695859,"ECCENTRICITY":0.00057462,"INCLINATION":97.6567,"RA_OF_ASC_NODE":346.0176,"ARG_OF_PERICENTER":4.7496,"MEAN_ANOMALY":355.38,"EPHEMERIS_TYPE":0,"NORAD_CAT_ID":52746,"ELEMENT_SET_NO":999,"REV_AT_EPOCH":23047,"BSTAR":0.00010962896,"MEAN_MOTION_DOT":0.00003602,"MEAN_MOTION_DDOT":0},{"OBJECT_NAME":"GHGSAT-C8","OBJECT_ID":"2023-054J","EPOCH":"2026-07-19T05:45:31.870944","CLASSIFICATION_TYPE":"U","MEAN_MOTION":15.53847215,"ECCENTRICITY":0.00023434,"INCLINATION":97.2949,"RA_OF_ASC_NODE":110.0256,"ARG_OF_PERICENTER":345.3904,"MEAN_ANOMALY":14.7282,"EPHEMERIS_TYPE":0,"NORAD_CAT_ID":56186,"ELEMENT_SET_NO":999,"REV_AT_EPOCH":18341,"BSTAR":0.00013416508,"MEAN_MOTION_DOT":0.00008525,"MEAN_MOTION_DDOT":0},{"OBJECT_NAME":"GHGSAT-C6","OBJECT_ID":"2023-054AC","EPOCH":"2026-07-19T04:56:58.678944","CLASSIFICATION_TYPE":"U","MEAN_MOTION":15.53821402,"ECCENTRICITY":0.00031795,"INCLINATION":97.301,"RA_OF_ASC_NODE":110.6979,"ARG_OF_PERICENTER":282.836,"MEAN_ANOMALY":77.2539,"EPHEMERIS_TYPE":0,"NORAD_CAT_ID":56204,"ELEMENT_SET_NO":999,"REV_AT_EPOCH":18342,"BSTAR":0.0001369734,"MEAN_MOTION_DOT":0.00008698,"MEAN_MOTION_DDOT":0},{"OBJECT_NAME":"GHGSAT-C7","OBJECT_ID":"2023-054AH","EPOCH":"2026-07-19T05:07:21.274752","CLASSIFICATION_TYPE":"U","MEAN_MOTION":15.50496059,"ECCENTRICITY":0.00048043,"INCLINATION":97.296,"RA_OF_ASC_NODE":108.9998,"ARG_OF_PERICENTER":283.6595,"MEAN_ANOMALY":76.4122,"EPHEMERIS_TYPE":0,"NORAD_CAT_ID":56209,"ELEMENT_SET_NO":999,"REV_AT_EPOCH":18335,"BSTAR":0.00010619086,"MEAN_MOTION_DOT":0.00005961,"MEAN_MOTION_DDOT":0},{"OBJECT_NAME":"GHGSAT-C12","OBJECT_ID":"2025-135B","EPOCH":"2026-07-19T07:12:08.931168","CLASSIFICATION_TYPE":"U","MEAN_MOTION":15.20459931,"ECCENTRICITY":0.00062807,"INCLINATION":97.4773,"RA_OF_ASC_NODE":314.8304,"ARG_OF_PERICENTER":70.185,"MEAN_ANOMALY":290.0061,"EPHEMERIS_TYPE":0,"NORAD_CAT_ID":64529,"ELEMENT_SET_NO":999,"REV_AT_EPOCH":5970,"BSTAR":0.000082170586,"MEAN_MOTION_DOT":0.00001725,"MEAN_MOTION_DDOT":0},{"OBJECT_NAME":"GHGSAT-C13","OBJECT_ID":"2025-135W","EPOCH":"2026-07-19T06:50:44.816352","CLASSIFICATION_TYPE":"U","MEAN_MOTION":15.21427752,"ECCENTRICITY":0.00016967,"INCLINATION":97.4804,"RA_OF_ASC_NODE":315.4386,"ARG_OF_PERICENTER":64.7225,"MEAN_ANOMALY":295.4186,"EPHEMERIS_TYPE":0,"NORAD_CAT_ID":64548,"ELEMENT_SET_NO":999,"REV_AT_EPOCH":5973,"BSTAR":0.00013252997,"MEAN_MOTION_DOT":0.00002905,"MEAN_MOTION_DDOT":0}]}
